[{"OBJECT_NAME":"STARLINK-5543","OBJECT_ID":"2023-058AA","EPOCH":"2026-03-09T23:29:32.925120","MEAN_MOTION":15.01259134,"ECCENTRICITY":8.577e-5,"INCLINATION":97.6032,"RA_OF_ASC_NODE":70.481,"ARG_OF_PERICENTER":150.622,"MEAN_ANOMALY":209.5053,"EPHEMERIS_TYPE":0,"CLASSIFICATION_TYPE":"U","NORAD_CAT_ID":56341,"ELEMENT_SET_NO":999,"REV_AT_EPOCH":15816,"BSTAR":-2.3742327e-5,"MEAN_MOTION_DOT":-3.63e-6,"MEAN_MOTION_DDOT":0},{"OBJECT_NAME":"SL-14 R\/B","OBJECT_ID":"1977-055B","EPOCH":"2026-03-09T12:09:50.153472","MEAN_MOTION":14.92006976,"ECCENTRICITY":0.00409775,"INCLINATION":75.8306,"RA_OF_ASC_NODE":90.7175,"ARG_OF_PERICENTER":356.0217,"MEAN_ANOMALY":4.0643,"EPHEMERIS_TYPE":0,"CLASSIFICATION_TYPE":"U","NORAD_CAT_ID":10096,"ELEMENT_SET_NO":999,"REV_AT_EPOCH":63654,"BSTAR":8.4112642e-5,"MEAN_MOTION_DOT":8.45e-6,"MEAN_MOTION_DDOT":0}]
